[{"OBJECT_NAME":"STARLINK-1742","OBJECT_ID":"2020-062BD","EPOCH":"2026-03-10T00:00:02.999808","MEAN_MOTION":15.82363369,"ECCENTRICITY":0.00078051,"INCLINATION":53.0262,"RA_OF_ASC_NODE":254.219,"ARG_OF_PERICENTER":155.9322,"MEAN_ANOMALY":96.6249,"EPHEMERIS_TYPE":0,"CLASSIFICATION_TYPE":"U","NORAD_CAT_ID":46376,"ELEMENT_SET_NO":999,"REV_AT_EPOCH":592,"BSTAR":0.0013794836,"MEAN_MOTION_DOT":0.00301937,"MEAN_MOTION_DDOT":0},{"OBJECT_NAME":"STARLINK-36690","OBJECT_ID":"2026-036K","EPOCH":"2026-03-09T21:28:06.084768","MEAN_MOTION":15.82111541,"ECCENTRICITY":0.0001879,"INCLINATION":42.9988,"RA_OF_ASC_NODE":248.4581,"ARG_OF_PERICENTER":275.0394,"MEAN_ANOMALY":85.0264,"EPHEMERIS_TYPE":0,"CLASSIFICATION_TYPE":"U","NORAD_CAT_ID":67913,"ELEMENT_SET_NO":999,"REV_AT_EPOCH":370,"BSTAR":0.0013686531,"MEAN_MOTION_DOT":0.00299173,"MEAN_MOTION_DDOT":0}]
